[{"OBJECT_NAME":"STARLINK-30880","OBJECT_ID":"2023-171C","EPOCH":"2026-03-09T22:00:01.999584","MEAN_MOTION":15.2672663,"ECCENTRICITY":0.00016401,"INCLINATION":42.9994,"RA_OF_ASC_NODE":283.3086,"ARG_OF_PERICENTER":266.0454,"MEAN_ANOMALY":208.5229,"EPHEMERIS_TYPE":0,"CLASSIFICATION_TYPE":"U","NORAD_CAT_ID":58232,"ELEMENT_SET_NO":999,"REV_AT_EPOCH":563,"BSTAR":0.00085727415,"MEAN_MOTION_DOT":0.00022797,"MEAN_MOTION_DDOT":0},{"OBJECT_NAME":"FLOCK 4G-29","OBJECT_ID":"2025-009AK","EPOCH":"2026-03-09T19:33:04.927968","MEAN_MOTION":15.27382318,"ECCENTRICITY":0.00013664,"INCLINATION":97.4058,"RA_OF_ASC_NODE":151.3683,"ARG_OF_PERICENTER":288.0502,"MEAN_ANOMALY":72.0588,"EPHEMERIS_TYPE":0,"CLASSIFICATION_TYPE":"U","NORAD_CAT_ID":62642,"ELEMENT_SET_NO":999,"REV_AT_EPOCH":6372,"BSTAR":0.0004183135,"MEAN_MOTION_DOT":0.00011147,"MEAN_MOTION_DDOT":0}]
